{
    "links": {
        "self": "http://www.neowsapp.com/rest/v1/neo/3669061?api_key=iIulBulltgU6a56xZRHN4H3l9WmuAYTsLGpBGhQ2"
    },
    "id": "3669061",
    "neo_reference_id": "3669061",
    "name": "(2014 HP4)",
    "designation": "2014 HP4",
    "nasa_jpl_url": "http://ssd.jpl.nasa.gov/sbdb.cgi?sstr=3669061",
    "absolute_magnitude_h": 22.3,
    "estimated_diameter": {
        "kilometers": {
            "estimated_diameter_min": 0.0921626549,
            "estimated_diameter_max": 0.2060819612
        },
        "meters": {
            "estimated_diameter_min": 92.1626548503,
            "estimated_diameter_max": 206.0819612321
        },
        "miles": {
            "estimated_diameter_min": 0.057267201,
            "estimated_diameter_max": 0.1280533543
        },
        "feet": {
            "estimated_diameter_min": 302.370924539,
            "estimated_diameter_max": 676.1219416887
        }
    },
    "is_potentially_hazardous_asteroid": false,
    "close_approach_data": [
        {
            "close_approach_date": "2008-05-01",
            "close_approach_date_full": "2008-May-01 21:07",
            "epoch_date_close_approach": 1209676020000,
            "relative_velocity": {
                "kilometers_per_second": "21.106121816",
                "kilometers_per_hour": "75982.0385375442",
                "miles_per_hour": "47212.2838901757"
            },
            "miss_distance": {
                "astronomical": "0.3695121286",
                "lunar": "143.7402180254",
                "kilometers": "55278227.377726082",
                "miles": "34348297.7407886516"
            },
            "orbiting_body": "Earth"
        },
        {
            "close_approach_date": "2011-04-23",
            "close_approach_date_full": "2011-Apr-23 20:44",
            "epoch_date_close_approach": 1303591440000,
            "relative_velocity": {
                "kilometers_per_second": "16.7268478716",
                "kilometers_per_hour": "60216.6523378662",
                "miles_per_hour": "37416.286004048"
            },
            "miss_distance": {
                "astronomical": "0.2206164755",
                "lunar": "85.8198089695",
                "kilometers": "33003754.821707185",
                "miles": "20507582.296981753"
            },
            "orbiting_body": "Earth"
        },
        {
            "close_approach_date": "2014-04-04",
            "close_approach_date_full": "2014-Apr-04 01:25",
            "epoch_date_close_approach": 1396574700000,
            "relative_velocity": {
                "kilometers_per_second": "11.0032394275",
                "kilometers_per_hour": "39611.6619390097",
                "miles_per_hour": "24613.1462753808"
            },
            "miss_distance": {
                "astronomical": "0.0561481844",
                "lunar": "21.8416437316",
                "kilometers": "8399648.790607228",
                "miles": "5219299.7363386264"
            },
            "orbiting_body": "Earth"
        },
        {
            "close_approach_date": "2025-12-17",
            "close_approach_date_full": "2025-Dec-17 01:44",
            "epoch_date_close_approach": 1765935840000,
            "relative_velocity": {
                "kilometers_per_second": "22.9881166122",
                "kilometers_per_hour": "82757.2198038041",
                "miles_per_hour": "51422.1180497582"
            },
            "miss_distance": {
                "astronomical": "0.4179928813",
                "lunar": "162.5992308257",
                "kilometers": "62530844.717642831",
                "miles": "38854865.1835038278"
            },
            "orbiting_body": "Earth"
        }
    ],
    "orbital_data": {
        "orbit_id": "9",
        "orbit_determination_date": "2017-04-06 08:41:28",
        "first_observation_date": "2014-04-22",
        "last_observation_date": "2014-06-01",
        "data_arc_in_days": 40,
        "observations_used": 47,
        "orbit_uncertainty": "7",
        "minimum_orbit_intersection": ".0491021",
        "jupiter_tisserand_invariant": "3.562",
        "epoch_osculation": "2459000.5",
        "eccentricity": ".5560259787639845",
        "semi_major_axis": "2.065751344078298",
        "inclination": "5.301419540622655",
        "ascending_node_longitude": "158.623567803291",
        "orbital_period": "1084.464881905375",
        "perihelion_distance": ".9171399311041456",
        "perihelion_argument": "354.951404523695",
        "aphelion_distance": "3.21436275705245",
        "perihelion_time": "2458892.803178755546",
        "mean_anomaly": "35.75113984316784",
        "mean_motion": ".3319609569721518",
        "equinox": "J2000",
        "orbit_class": {
            "orbit_class_type": "APO",
            "orbit_class_description": "Near-Earth asteroid orbits which cross the Earth’s orbit similar to that of 1862 Apollo",
            "orbit_class_range": "a (semi-major axis) > 1.0 AU; q (perihelion) < 1.017 AU"
        }
    },
    "is_sentry_object": false
}